0 ARIANE 2 DEB
1 33568U 89006BL  13280.43292662  .00000114  00000-0  61535-3 0  3102
2 33568 008.4851 022.1068 7195774 255.2977 021.4612 02.28723225 60644
0 ARIANE 2 DEB
1 33568U 89006BL  13285.67713147  .00000190  00000-0  68628-3 0  3114
2 33568 008.4915 020.1431 7198125 259.2003 019.5472 02.28724682 60767
0 ARIANE 2 DEB
1 33568U 89006BL  13290.92153653  .00000046  00000-0  52931-3 0  3129
2 33568 008.5017 018.2108 7196202 263.1281 017.8171 02.28725673 60887
